IRIDIUM 116             
1 43072U 17083C   24341.83429579  .00000001  00000+0 -66998-5 0  9990
2 43072  86.4003 194.9316 0001709  88.0306 272.1086 14.34217191364286
IRIDIUM 130             
1 43073U 17083D   24341.94211993  .00000016  00000+0 -13991-5 0  9993
2 43073  86.4005 195.1073 0001872  82.7694 277.3715 14.34217589364247
IRIDIUM 151             
1 43074U 17083E   24341.91674400  .00000588  00000+0  20289-3 0  9996
2 43074  86.3999 194.9424 0001954  90.6269 269.5150 14.34215597364268
IRIDIUM 134             
1 43075U 17083F   24341.88503650  .00000048  00000+0  10117-4 0  9992
2 43075  86.4000 194.9561 0001849  85.2059 274.9348 14.34217899364227
IRIDIUM 137             
1 43076U 17083G   24341.89772216  .00000116  00000+0  34417-4 0  9995
2 43076  86.4005 195.0320 0001696 101.1912 258.9475 14.34212366364298
IRIDIUM 141             
1 43077U 17083H   24341.89138465  .00000590  00000+0  20346-3 0  9999
2 43077  86.3996 194.8973 0002269  81.2254 278.9199 14.34218625364291
IRIDIUM 153             
1 43078U 17083J   24341.84355808 -.00000106  00000+0 -44749-4 0  9996
2 43078  86.3990 163.4444 0002493  84.1503 275.9977 14.34217182365399
IRIDIUM 131             
1 43079U 17083K   24341.87869074  .00000488  00000+0  16738-3 0  9992
2 43079  86.4005 195.0511 0002126  88.2327 271.9112 14.34212983364228
